NORAD_CAT_ID,OBJECT_NAME,OBJECT_TYPE,EPOCH,MEAN_MOTION,ECCENTRICITY,INCLINATION,RA_OF_ASC_NODE,ARG_OF_PERICENTER,MEAN_ANOMALY,BSTAR,MEAN_MOTION_DOT,MEAN_MOTION_DDOT,TLE_LINE0,TLE_LINE1,TLE_LINE2,SEMIMAJOR_AXIS,PERIOD,APOGEE,PERIGEE,DECAYED
54176.0,STARLINK-5154,PAYLOAD,2024-02-04 10:30:52,15.08845513,0.0001069,53.2173,194.8337,101.2721,258.8392,-3.3382e-05,-8.19e-06,0.0,0 STARLINK-5154,1 54176U 22141V   24035.43810516 -.00000819  00000-0 -33382-4 0  9998,2 54176  53.2173 194.8337 0001069 101.2721 258.8392 15.08845513 70487,6917.864,95.437,540.468,538.989,0.0
54176.0,STARLINK-5154,PAYLOAD,2024-02-04 16:52:24,15.08846931,0.0001048,53.2168,193.6445,94.4885,265.6227,-1.1857e-05,-4.77e-06,0.0,0 STARLINK-5154,1 54176U 22141V   24035.70306288 -.00000477  00000-0 -11857-4 0  9997,2 54176  53.2168 193.6445 0001048  94.4885 265.6227 15.08846931 70522,6917.859,95.437,540.449,538.999,0.0
54176.0,STARLINK-5154,PAYLOAD,2024-02-05 13:32:25,15.08843909,0.0001253,53.2161,189.7778,96.9299,263.1836,0.00011268,1.506e-05,0.0,0 STARLINK-5154,1 54176U 22141V   24036.56418010  .00001506  00000-0  11268-3 0  9996,2 54176  53.2161 189.7778 0001253  96.9299 263.1836 15.08843909 70659,6917.868,95.437,540.6,538.867,0.0
54176.0,STARLINK-5154,PAYLOAD,2024-02-05 16:43:11,15.08847447,0.0001328,53.2174,189.184,91.1917,268.9227,0.00014161,1.967e-05,0.0,0 STARLINK-5154,1 54176U 22141V   24036.69665769  .00001967  00000-0  14161-3 0  9991,2 54176  53.2174 189.1840 0001328  91.1917 268.9227 15.08847447 70674,6917.858,95.437,540.641,538.804,0.0
54176.0,STARLINK-5154,PAYLOAD,2024-02-06 13:23:12,15.08842687,0.0001431,53.2183,185.3188,87.4823,272.6333,7.9082e-05,9.71e-06,0.0,0 STARLINK-5154,1 54176U 22141V   24037.55778140  .00000971  00000-0  79082-4 0  9993,2 54176  53.2183 185.3188 0001431  87.4823 272.6333 15.08842687 70802,6917.872,95.437,540.727,538.747,0.0
54176.0,STARLINK-5154,PAYLOAD,2024-02-06 16:33:58,15.08845804,0.0001467,53.218,184.7232,79.0597,281.056,8.2362e-05,1.023e-05,0.0,0 STARLINK-5154,1 54176U 22141V   24037.69025930  .00001023  00000-0  82362-4 0  9994,2 54176  53.2180 184.7232 0001467  79.0597 281.0560 15.08845804 70828,6917.863,95.437,540.742,538.713,0.0
54176.0,STARLINK-5154,PAYLOAD,2024-02-07 10:03:13,15.08837491,0.0001519,53.2186,181.4569,81.1349,278.9815,-2.1404e-06,-3.22e-06,0.0,0 STARLINK-5154,1 54176U 22141V   24038.41890811 -.00000322  00000-0 -21404-5 0  9997,2 54176  53.2186 181.4569 0001519  81.1349 278.9815 15.08837491 70931,6917.888,95.438,540.804,538.702,0.0
54176.0,STARLINK-5154,PAYLOAD,2024-02-07 14:49:22,15.08839341,0.0001445,53.2183,180.5656,98.0617,262.0539,3.0404e-06,-2.4e-06,0.0,0 STARLINK-5154,1 54176U 22141V   24038.61762628 -.00000240  00000-0  30404-5 0  9991,2 54176  53.2183 180.5656 0001445  98.0617 262.0539 15.08839341 70964,6917.882,95.438,540.747,538.748,0.0
54176.0,STARLINK-5154,PAYLOAD,2024-02-07 16:24:46,15.08840335,0.0001356,53.2176,180.2682,94.2041,265.9106,-1.5833e-05,-5.4e-06,0.0,0 STARLINK-5154,1 54176U 22141V   24038.68386593 -.00000540  00000-0 -15833-4 0  9993,2 54176  53.2176 180.2682 0001356  94.2041 265.9106 15.08840335 70970,6917.879,95.438,540.682,538.806,0.0
54176.0,STARLINK-5154,PAYLOAD,2024-02-08 14:40:09,15.08845911,0.0001331,53.2172,176.1026,104.3911,255.7229,-2.1706e-05,-6.33e-06,0.0,0 STARLINK-5154,1 54176U 22141V   24039.61122431 -.00000633  00000-0 -21706-4 0  9995,2 54176  53.2172 176.1026 0001331 104.3911 255.7229 15.08845911 71119,6917.862,95.437,540.648,538.807,0.0
54176.0,STARLINK-5154,PAYLOAD,2024-02-09 14:30:57,15.08840441,0.0001257,53.2163,171.6415,98.3709,261.7426,0.00011133,1.484e-05,0.0,0 STARLINK-5154,1 54176U 22141V   24040.60482703  .00001484  00000-0  11133-3 0  9992,2 54176  53.2163 171.6415 0001257  98.3709 261.7426 15.08840441 71260,6917.879,95.438,540.614,538.874,0.0
54176.0,STARLINK-5154,PAYLOAD,2024-02-09 17:41:42,15.0884868,0.0001358,53.2166,171.0472,102.3879,257.7265,0.00018223,2.614e-05,0.0,0 STARLINK-5154,1 54176U 22141V   24040.73730027  .00002614  00000-0  18223-3 0  9994,2 54176  53.2166 171.0472 0001358 102.3879 257.7265 15.08848680 71287,6917.854,95.437,540.658,538.779,0.0
54176.0,STARLINK-5154,PAYLOAD,2024-02-10 14:21:44,15.08841037,0.0001748,53.2164,167.1796,122.325,237.7912,8.4461e-05,1.056e-05,0.0,0 STARLINK-5154,1 54176U 22141V   24041.59842844  .00001056  00000-0  84461-4 0  9997,2 54176  53.2164 167.1796 0001748 122.3250 237.7912 15.08841037 71419,6917.877,95.437,540.951,538.533,0.0
54176.0,STARLINK-5154,PAYLOAD,2024-02-10 17:32:30,15.08848876,0.0001493,53.2168,166.5843,95.1152,265.001,0.000161,2.276e-05,0.0,0 STARLINK-5154,1 54176U 22141V   24041.73090394  .00002276  00000-0  16100-3 0  9997,2 54176  53.2168 166.5843 0001493  95.1152 265.0010 15.08848876 71437,6917.853,95.437,540.751,538.685,0.0
54176.0,STARLINK-5154,PAYLOAD,2024-02-11 07:50:58,15.08838385,0.0001359,53.2161,163.9027,119.5844,240.5283,-7.2857e-05,-1.447e-05,0.0,0 STARLINK-5154,1 54176U 22141V   24042.32706787 -.00001447  00000-0 -72857-4 0  9996,2 54176  53.2161 163.9027 0001359 119.5844 240.5283 15.08838385 71529,6917.885,95.438,540.69,538.81,0.0
54176.0,STARLINK-5154,PAYLOAD,2024-02-11 14:12:30,15.08846088,0.0001555,53.2158,162.7207,105.4226,254.6938,5.6698e-05,6.15e-06,0.0,0 STARLINK-5154,1 54176U 22141V   24042.59202464  .00000615  00000-0  56698-4 0  9997,2 54176  53.2158 162.7207 0001555 105.4226 254.6938 15.08846088 71564,6917.862,95.437,540.803,538.651,0.0
54176.0,STARLINK-5154,PAYLOAD,2024-02-11 17:23:17,15.08850449,0.0001896,53.2153,162.1241,106.4934,253.6267,0.00012471,1.698e-05,0.0,0 STARLINK-5154,1 54176U 22141V   24042.72450235  .00001698  00000-0  12471-3 0  9995,2 54176  53.2153 162.1241 0001896 106.4934 253.6267 15.08850449 71588,6917.848,95.437,541.025,538.402,0.0
54176.0,STARLINK-5154,PAYLOAD,2024-02-12 12:27:54,15.08850006,0.0002067,53.2168,158.5539,118.3685,241.7516,9.8893e-05,1.286e-05,0.0,0 STARLINK-5154,1 54176U 22141V   24043.51938185  .00001286  00000-0  98893-4 0  9994,2 54176  53.2168 158.5539 0002067 118.3685 241.7516 15.08850006 71707,6917.85,95.437,541.145,538.285,0.0
54176.0,STARLINK-5154,PAYLOAD,2024-02-12 14:03:17,15.08849557,0.000155,53.2164,158.2606,90.7948,269.3221,0.00010805,1.432e-05,0.0,0 STARLINK-5154,1 54176U 22141V   24043.58562389  .00001432  00000-0  10805-3 0  9999,2 54176  53.2164 158.2606 0001550  90.7948 269.3221 15.08849557 71715,6917.851,95.437,540.788,538.644,0.0
54176.0,STARLINK-5154,PAYLOAD,2024-02-12 17:14:03,15.0885343,0.0001713,53.2159,157.6627,107.7878,252.3302,0.00017069,2.43e-05,0.0,0 STARLINK-5154,1 54176U 22141V   24043.71810044  .00002430  00000-0  17069-3 0  9996,2 54176  53.2159 157.6627 0001713 107.7878 252.3302 15.08853430 71736,6917.839,95.437,540.889,538.519,0.0
54176.0,STARLINK-5154,PAYLOAD,2024-02-13 12:18:42,15.0883523,0.0001646,53.2159,154.0926,114.2619,245.8546,-0.00013106,-2.373e-05,0.0,0 STARLINK-5154,1 54176U 22141V   24044.51299245 -.00002373  00000-0 -13106-3 0  9995,2 54176  53.2159 154.0926 0001646 114.2619 245.8546 15.08835230 71858,6917.895,95.438,540.899,538.621,0.0
54176.0,STARLINK-5154,PAYLOAD,2024-02-13 13:54:05,15.08837135,0.000142,53.2158,153.7955,100.4259,259.6894,-7.8119e-05,-1.531e-05,0.0,0 STARLINK-5154,1 54176U 22141V   24044.57923267 -.00001531  00000-0 -78119-4 0  9990,2 54176  53.2158 153.7955 0001420 100.4259 259.6894 15.08837135 71868,6917.889,95.438,540.736,538.772,0.0
54176.0,STARLINK-5154,PAYLOAD,2024-02-14 12:09:29,15.08857325,0.0001392,53.2151,149.6326,100.4254,259.6895,0.00045687,6.994e-05,0.0,0 STARLINK-5154,1 54176U 22141V   24045.50658675  .00006994  00000-0  45687-3 0  9991,2 54176  53.2151 149.6326 0001392 100.4254 259.6895 15.08857325 72001,6917.827,95.436,540.655,538.729,0.0
54176.0,STARLINK-5154,PAYLOAD,2024-02-14 13:44:52,15.08867302,0.0001377,53.2158,149.3419,91.0679,269.0471,0.00079733,0.00012434,0.0,0 STARLINK-5154,1 54176U 22141V   24045.57282800  .00012434  00000-0  79733-3 0  9996,2 54176  53.2158 149.3419 0001377  91.0679 269.0471 15.08867302 72019,6917.797,95.436,540.615,538.709,0.0
54176.0,STARLINK-5154,PAYLOAD,2024-02-14 16:55:38,15.08878488,0.000134,53.2149,148.7442,95.9724,264.142,0.0013428,0.0002117,0.0,0 STARLINK-5154,1 54176U 22141V   24045.70530423  .00021170  00000-0  13428-2 0  9993,2 54176  53.2149 148.7442 0001340  95.9724 264.1420 15.08878488 72031,6917.763,95.435,540.555,538.701,0.0
54176.0,STARLINK-5154,PAYLOAD,2024-02-14 23:17:11,15.08841376,0.0001896,53.2152,147.5528,90.2208,269.9001,-8.6709e-05,-1.668e-05,0.0,0 STARLINK-5154,1 54176U 22141V   24045.97027172 -.00001668  00000-0 -86709-4 0  9990,2 54176  53.2152 147.5528 0001896  90.2208 269.9001 15.08841376 72076,6917.876,95.437,541.053,538.43,0.0
54176.0,STARLINK-5154,PAYLOAD,2024-02-15 13:35:39,15.08830647,0.0001508,53.2156,144.8807,113.9663,246.1487,0.0011038,0.00017318,0.0,0 STARLINK-5154,1 54176U 22141V   24046.56643483  .00017318  00000-0  11038-2 0  9993,2 54176  53.2156 144.8807 0001508 113.9663 246.1487 15.08830647 72162,6917.909,95.438,540.817,538.731,0.0
54176.0,STARLINK-5154,PAYLOAD,2024-02-16 11:51:03,15.08850753,0.0001558,53.2159,140.7165,108.6648,251.4514,0.00084205,0.00013143,0.0,0 STARLINK-5154,1 54176U 22141V   24047.49379521  .00013143  00000-0  84205-3 0  9994,2 54176  53.2159 140.7165 0001558 108.6648 251.4514 15.08850753 72302,6917.848,95.437,540.79,538.635,0.0
54176.0,STARLINK-5154,PAYLOAD,2024-02-16 13:26:26,15.08854202,0.0001562,53.2163,140.4194,109.2315,250.8846,0.00089838,0.00014044,0.0,0 STARLINK-5154,1 54176U 22141V   24047.56003416  .00014044  00000-0  89838-3 0  9997,2 54176  53.2163 140.4194 0001562 109.2315 250.8846 15.08854202 72314,6917.837,95.437,540.783,538.621,0.0
54176.0,STARLINK-5154,PAYLOAD,2024-02-17 11:41:51,15.08838828,0.0001153,53.2155,136.2537,98.7041,261.4082,0.00015477,2.176e-05,0.0,0 STARLINK-5154,1 54176U 22141V   24048.48739664  .00002176  00000-0  15477-3 0  9991,2 54176  53.2155 136.2537 0001153  98.7041 261.4082 15.08838828 72454,6917.884,95.438,540.547,538.951,0.0
